[
    {
        "Altitude(m)": 557848.9663089224,
        "Argument of Periapsis(deg)": 0.006622991110713501,
        "Eccentricity": 0.0,
        "Inclination(deg)": 53.0,
        "Latitude(deg)": -16.650398945791526,
        "Longitude(deg)": -158.72486708143,
        "Mean Anomaly(deg)": -20.817507132422385,
        "RAAN(deg)": 314.990143368528,
        "Satellite Name": "Starlink Shell 1 1406",
        "Satellite Number": 1406,
        "Semi-Major Axis(m)": 6931778.249405717,
        "Time(s)": 190
    },
    {
        "Altitude(m)": 557703.7480218144,
        "Argument of Periapsis(deg)": 0.0069715695902247375,
        "Eccentricity": 0.0,
        "Inclination(deg)": 53.0,
        "Latitude(deg)": -16.15967857968758,
        "Longitude(deg)": -158.35742386615505,
        "Mean Anomaly(deg)": -20.19067592886574,
        "RAAN(deg)": 314.9896245984506,
        "Satellite Name": "Starlink Shell 1 1406",
        "Satellite Number": 1406,
        "Semi-Major Axis(m)": 6931778.249405717,
        "Time(s)": 200
    },
    {
        "Altitude(m)": 557560.3975412415,
        "Argument of Periapsis(deg)": 0.007320148069735974,
        "Eccentricity": 0.0,
        "Inclination(deg)": 53.0,
        "Latitude(deg)": -15.668141250426318,
        "Longitude(deg)": -157.99197989834428,
        "Mean Anomaly(deg)": -19.563844725309046,
        "RAAN(deg)": 314.98910582837306,
        "Satellite Name": "Starlink Shell 1 1406",
        "Satellite Number": 1406,
        "Semi-Major Axis(m)": 6931778.249405717,
        "Time(s)": 210
    },
    {
        "Altitude(m)": 557418.9618593238,
        "Argument of Periapsis(deg)": 0.007668726549247212,
        "Eccentricity": 0.0,
        "Inclination(deg)": 53.0,
        "Latitude(deg)": -15.175816124122198,
        "Longitude(deg)": -157.6284648240174,
        "Mean Anomaly(deg)": -18.9370135217523,
        "RAAN(deg)": 314.9885870582956,
        "Satellite Name": "Starlink Shell 1 1406",
        "Satellite Number": 1406,
        "Semi-Major Axis(m)": 6931778.249405717,
        "Time(s)": 220
    },
    {
        "Altitude(m)": 557279.4869672386,
        "Argument of Periapsis(deg)": 0.00801730502875845,
        "Eccentricity": 0.0,
        "Inclination(deg)": 53.0,
        "Latitude(deg)": -14.682731947068316,
        "Longitude(deg)": -157.2668090974391,
        "Mean Anomaly(deg)": -18.310182318195555,
        "RAAN(deg)": 314.9880682882182,
        "Satellite Name": "Starlink Shell 1 1406",
        "Satellite Number": 1406,
        "Semi-Major Axis(m)": 6931778.249405717,
        "Time(s)": 230
    },
    {
        "Altitude(m)": 557142.017835067,
        "Argument of Periapsis(deg)": 0.008365883508269684,
        "Eccentricity": 0.0,
        "Inclination(deg)": 53.0,
        "Latitude(deg)": -14.188917062850996,
        "Longitude(deg)": -156.90694345021356,
        "Mean Anomaly(deg)": -17.68335111463891,
        "RAAN(deg)": 314.98754951814067,
        "Satellite Name": "Starlink Shell 1 1406",
        "Satellite Number": 1406,
        "Semi-Major Axis(m)": 6931778.249405717,
        "Time(s)": 240
    },
    {
        "Altitude(m)": 557006.5983921798,
        "Argument of Periapsis(deg)": 0.008714461987780921,
        "Eccentricity": 0.0,
        "Inclination(deg)": 53.0,
        "Latitude(deg)": -13.694399429105877,
        "Longitude(deg)": -156.54879987320004,
        "Mean Anomaly(deg)": -17.05651991108211,
        "RAAN(deg)": 314.98703074806315,
        "Satellite Name": "Starlink Shell 1 1406",
        "Satellite Number": 1406,
        "Semi-Major Axis(m)": 6931778.249405717,
        "Time(s)": 250
    },
    {
        "Altitude(m)": 556873.2715081071,
        "Argument of Periapsis(deg)": 0.009063040467292158,
        "Eccentricity": 0.0,
        "Inclination(deg)": 53.0,
        "Latitude(deg)": -13.199206633933244,
        "Longitude(deg)": -156.1923110855252,
        "Mean Anomaly(deg)": -16.429688707525365,
        "RAAN(deg)": 314.98651197798574,
        "Satellite Name": "Starlink Shell 1 1406",
        "Satellite Number": 1406,
        "Semi-Major Axis(m)": 6931778.249405717,
        "Time(s)": 260
    },
    {
        "Altitude(m)": 556742.0789739508,
        "Argument of Periapsis(deg)": 0.009411618946803396,
        "Eccentricity": 0.0,
        "Inclination(deg)": 53.0,
        "Latitude(deg)": -12.703365911980953,
        "Longitude(deg)": -155.83741000358657,
        "Mean Anomaly(deg)": -15.802857503968719,
        "RAAN(deg)": 314.9859932079082,
        "Satellite Name": "Starlink Shell 1 1406",
        "Satellite Number": 1406,
        "Semi-Major Axis(m)": 6931778.249405717,
        "Time(s)": 270
    },
    {
        "Altitude(m)": 556613.0614842913,
        "Argument of Periapsis(deg)": 0.009760197426314633,
        "Eccentricity": 0.0,
        "Inclination(deg)": 53.0,
        "Latitude(deg)": -12.206904160206024,
        "Longitude(deg)": -155.48403072293777,
        "Mean Anomaly(deg)": -15.176026300412024,
        "RAAN(deg)": 314.98547443783076,
        "Satellite Name": "Starlink Shell 1 1406",
        "Satellite Number": 1406,
        "Semi-Major Axis(m)": 6931778.249405717,
        "Time(s)": 280
    },
    {
        "Altitude(m)": 556486.2586196811,
        "Argument of Periapsis(deg)": 0.01010877590582587,
        "Eccentricity": 0.0,
        "Inclination(deg)": 53.0,
        "Latitude(deg)": -11.70984795333195,
        "Longitude(deg)": -155.13210798732567,
        "Mean Anomaly(deg)": -14.549195096855225,
        "RAAN(deg)": 314.9849556677533,
        "Satellite Name": "Starlink Shell 1 1406",
        "Satellite Number": 1406,
        "Semi-Major Axis(m)": 6931778.249405717,
        "Time(s)": 290
    },
    {
        "Altitude(m)": 556361.7088296551,
        "Argument of Periapsis(deg)": 0.010457354385337106,
        "Eccentricity": 0.0,
        "Inclination(deg)": 53.0,
        "Latitude(deg)": -11.212223559012047,
        "Longitude(deg)": -154.78157665776575,
        "Mean Anomaly(deg)": -13.922363893298531,
        "RAAN(deg)": 314.98443689767583,
        "Satellite Name": "Starlink Shell 1 1406",
        "Satellite Number": 1406,
        "Semi-Major Axis(m)": 6931778.249405717,
        "Time(s)": 300
    },
    {
        "Altitude(m)": 556239.449416296,
        "Argument of Periapsis(deg)": 0.010805932864848343,
        "Eccentricity": 0.0,
        "Inclination(deg)": 53.0,
        "Latitude(deg)": -10.71405695270685,
        "Longitude(deg)": -154.43237269453905,
        "Mean Anomaly(deg)": -13.295532689741835,
        "RAAN(deg)": 314.9839181275983,
        "Satellite Name": "Starlink Shell 1 1406",
        "Satellite Number": 1406,
        "Semi-Major Axis(m)": 6931778.249405717,
        "Time(s)": 310
    },
    {
        "Altitude(m)": 556119.5165184018,
        "Argument of Periapsis(deg)": 0.01115451134435958,
        "Eccentricity": 0.0,
        "Inclination(deg)": 53.0,
        "Latitude(deg)": -10.21537383229559,
        "Longitude(deg)": -154.08443262637638,
        "Mean Anomaly(deg)": -12.668701486185139,
        "RAAN(deg)": 314.9833993575209,
        "Satellite Name": "Starlink Shell 1 1406",
        "Satellite Number": 1406,
        "Semi-Major Axis(m)": 6931778.249405717,
        "Time(s)": 320
    },
    {
        "Altitude(m)": 556001.9450961987,
        "Argument of Periapsis(deg)": 0.011503089823870818,
        "Eccentricity": 0.0,
        "Inclination(deg)": 53.0,
        "Latitude(deg)": -9.71619963242976,
        "Longitude(deg)": -153.73769301970873,
        "Mean Anomaly(deg)": -12.041870282628343,
        "RAAN(deg)": 314.9828805874434,
        "Satellite Name": "Starlink Shell 1 1406",
        "Satellite Number": 1406,
        "Semi-Major Axis(m)": 6931778.249405717,
        "Time(s)": 330
    },
    {
        "Altitude(m)": 555886.7689166308,
        "Argument of Periapsis(deg)": 0.011851668303382053,
        "Eccentricity": 0.0,
        "Inclination(deg)": 53.0,
        "Latitude(deg)": -9.216559538638775,
        "Longitude(deg)": -153.39209146086364,
        "Mean Anomaly(deg)": -11.415039079071699,
        "RAAN(deg)": 314.9823618173659,
        "Satellite Name": "Starlink Shell 1 1406",
        "Satellite Number": 1406,
        "Semi-Major Axis(m)": 6931778.249405717,
        "Time(s)": 340
    },
    {
        "Altitude(m)": 555774.0205392803,
        "Argument of Periapsis(deg)": 0.012200246782893292,
        "Eccentricity": 0.0,
        "Inclination(deg)": 53.0,
        "Latitude(deg)": -8.71647850120499,
        "Longitude(deg)": -153.04756602546624,
        "Mean Anomaly(deg)": -10.788207875515052,
        "RAAN(deg)": 314.98184304728846,
        "Satellite Name": "Starlink Shell 1 1406",
        "Satellite Number": 1406,
        "Semi-Major Axis(m)": 6931778.249405717,
        "Time(s)": 350
    },
    {
        "Altitude(m)": 555663.7313028503,
        "Argument of Periapsis(deg)": 0.012548825262404526,
        "Eccentricity": 0.0,
        "Inclination(deg)": 53.0,
        "Latitude(deg)": -8.215981248817998,
        "Longitude(deg)": -152.70405474792145,
        "Mean Anomaly(deg)": -10.161376671958255,
        "RAAN(deg)": 314.981324277211,
        "Satellite Name": "Starlink Shell 1 1406",
        "Satellite Number": 1406,
        "Semi-Major Axis(m)": 6931778.249405717,
        "Time(s)": 360
    },
    {
        "Altitude(m)": 555555.9313122788,
        "Argument of Periapsis(deg)": 0.012897403741915765,
        "Eccentricity": 0.0,
        "Inclination(deg)": 53.0,
        "Latitude(deg)": -7.715092302017796,
        "Longitude(deg)": -152.36149660385266,
        "Mean Anomaly(deg)": -9.53454546840151,
        "RAAN(deg)": 314.9808055071335,
        "Satellite Name": "Starlink Shell 1 1406",
        "Satellite Number": 1406,
        "Semi-Major Axis(m)": 6931778.249405717,
        "Time(s)": 370
    }
]